{
  "type": "FeatureCollection",
  "features": [
    {
      "type": "Feature",
      "properties": {
        "norad_id": 35824,
        "name": "COSMOS 2251 DEB",
        "group": "cosmos-2251-debris",
        "lat": -67.75341798589977,
        "lon": -103.48997577395457,
        "alt_km": 1075.2934993443741,
        "timestamp": "2025-12-22T20:43:46.244788+00:00",
        "meta_object_name": "COSMOS 2251 DEB",
        "meta_object_id": "1993-036ASW",
        "meta_epoch": "2025-12-21T08:56:41.476128",
        "meta_mean_motion": 13.88446909,
        "meta_eccentricity": 0.02476754,
        "meta_inclination": 73.8455,
        "meta_ra_of_asc_node": 33.9512,
        "meta_arg_of_pericenter": 118.4856,
        "meta_mean_anomaly": 244.1458,
        "meta_ephemeris_type": 0,
        "meta_classification_type": "U",
        "meta_norad_cat_id": 35824,
        "meta_element_set_no": 999,
        "meta_rev_at_epoch": 84347,
        "meta_bstar": 0.00083575798,
        "meta_mean_motion_dot": 1.258e-05,
        "meta_mean_motion_ddot": 0,
        "tle_line1": "1 35824U 93036ASW 25355.37270227  .00001258  00000+0  83576-3 0  9990",
        "tle_line2": "2 35824  73.8455  33.9512 0247675 118.4856 244.1458 13.88446909843479"
      },
      "geometry": {
        "type": "Point",
        "coordinates": [
          -103.48997577395457,
          -67.75341798589977
        ]
      }
    },
    {
      "type": "Feature",
      "properties": {
        "norad_id": 35825,
        "name": "COSMOS 2251 DEB",
        "group": "cosmos-2251-debris",
        "lat": -5.527048143826628,
        "lon": 124.42228935462818,
        "alt_km": 1177.966394907553,
        "timestamp": "2025-12-22T20:43:46.244798+00:00",
        "meta_object_name": "COSMOS 2251 DEB",
        "meta_object_id": "1993-036ASX",
        "meta_epoch": "2025-12-14T02:36:29.406816",
        "meta_mean_motion": 13.70963524,
        "meta_eccentricity": 0.03526119,
        "meta_inclination": 74.113,
        "meta_ra_of_asc_node": 140.3902,
        "meta_arg_of_pericenter": 235.9093,
        "meta_mean_anomaly": 120.8102,
        "meta_ephemeris_type": 0,
        "meta_classification_type": "U",
        "meta_norad_cat_id": 35825,
        "meta_element_set_no": 999,
        "meta_rev_at_epoch": 82527,
        "meta_bstar": 0.0023333684,
        "meta_mean_motion_dot": 3.214e-05,
        "meta_mean_motion_ddot": 0,
        "tle_line1": "1 35825U 93036ASX 25348.10867369  .00003214  00000+0  23334-2 0  9992",
        "tle_line2": "2 35825  74.1130 140.3902 0352611 235.9093 120.8102 13.70963524825277"
      },
      "geometry": {
        "type": "Point",
        "coordinates": [
          124.42228935462818,
          -5.527048143826628
        ]
      }
    },
    {
      "type": "Feature",
      "properties": {
        "norad_id": 35829,
        "name": "COSMOS 2251 DEB",
        "group": "cosmos-2251-debris",
        "lat": 61.35210334516701,
        "lon": -132.65660196107734,
        "alt_km": 630.3049048916837,
        "timestamp": "2025-12-22T20:43:46.244808+00:00",
        "meta_object_name": "COSMOS 2251 DEB",
        "meta_object_id": "1993-036ATB",
        "meta_epoch": "2025-12-17T00:21:46.598688",
        "meta_mean_motion": 14.76400839,
        "meta_eccentricity": 0.0005573,
        "meta_inclination": 74.0249,
        "meta_ra_of_asc_node": 90.4281,
        "meta_arg_of_pericenter": 146.0686,
        "meta_mean_anomaly": 214.0846,
        "meta_ephemeris_type": 0,
        "meta_classification_type": "U",
        "meta_norad_cat_id": 35829,
        "meta_element_set_no": 999,
        "meta_rev_at_epoch": 87838,
        "meta_bstar": 0.001494418,
        "meta_mean_motion_dot": 0.00010373,
        "meta_mean_motion_ddot": 0,
        "tle_line1": "1 35829U 93036ATB 25351.01512267  .00010373  00000+0  14944-2 0  9995",
        "tle_line2": "2 35829  74.0249  90.4281 0005573 146.0686 214.0846 14.76400839878381"
      },
      "geometry": {
        "type": "Point",
        "coordinates": [
          -132.65660196107734,
          61.35210334516701
        ]
      }
    },
    {
      "type": "Feature",
      "properties": {
        "norad_id": 35830,
        "name": "COSMOS 2251 DEB",
        "group": "cosmos-2251-debris",
        "lat": -47.08614684968615,
        "lon": -130.132180767133,
        "alt_km": 826.3245092542802,
        "timestamp": "2025-12-22T20:43:46.244817+00:00",
        "meta_object_name": "COSMOS 2251 DEB",
        "meta_object_id": "1993-036ATC",
        "meta_epoch": "2025-12-17T01:01:27.071616",
        "meta_mean_motion": 14.24015017,
        "meta_eccentricity": 0.01218819,
        "meta_inclination": 73.8614,
        "meta_ra_of_asc_node": 258.6041,
        "meta_arg_of_pericenter": 226.0627,
        "meta_mean_anomaly": 133.0413,
        "meta_ephemeris_type": 0,
        "meta_classification_type": "U",
        "meta_norad_cat_id": 35830,
        "meta_element_set_no": 999,
        "meta_rev_at_epoch": 61325,
        "meta_bstar": 0.00082142349,
        "meta_mean_motion_dot": 2.01e-05,
        "meta_mean_motion_ddot": 0,
        "tle_line1": "1 35830U 93036ATC 25351.04267444  .00002010  00000+0  82142-3 0  9999",
        "tle_line2": "2 35830  73.8614 258.6041 0121881 226.0627 133.0413 14.24015017613259"
      },
      "geometry": {
        "type": "Point",
        "coordinates": [
          -130.132180767133,
          -47.08614684968615
        ]
      }
    },
    {
      "type": "Feature",
      "properties": {
        "norad_id": 35834,
        "name": "COSMOS 2251 DEB",
        "group": "cosmos-2251-debris",
        "lat": 67.32672997897907,
        "lon": 62.91166322192427,
        "alt_km": 768.6953378742601,
        "timestamp": "2025-12-22T20:43:46.244827+00:00",
        "meta_object_name": "COSMOS 2251 DEB",
        "meta_object_id": "1993-036ATG",
        "meta_epoch": "2025-12-18T21:21:21.733632",
        "meta_mean_motion": 14.12989535,
        "meta_eccentricity": 0.01093187,
        "meta_inclination": 73.9334,
        "meta_ra_of_asc_node": 293.5971,
        "meta_arg_of_pericenter": 92.3571,
        "meta_mean_anomaly": 326.954,
        "meta_ephemeris_type": 0,
        "meta_classification_type": "U",
        "meta_norad_cat_id": 35834,
        "meta_element_set_no": 999,
        "meta_rev_at_epoch": 66350,
        "meta_bstar": 0.00038881457,
        "meta_mean_motion_dot": 7.43e-06,
        "meta_mean_motion_ddot": 0,
        "tle_line1": "1 35834U 93036ATG 25352.88983488  .00000743  00000+0  38881-3 0  9991",
        "tle_line2": "2 35834  73.9334 293.5971 0109318  92.3571 326.9540 14.12989535663505"
      },
      "geometry": {
        "type": "Point",
        "coordinates": [
          62.91166322192427,
          67.32672997897907
        ]
      }
    },
    {
      "type": "Feature",
      "properties": {
        "norad_id": 35835,
        "name": "COSMOS 2251 DEB",
        "group": "cosmos-2251-debris",
        "lat": 24.302780278794415,
        "lon": -101.16979988981863,
        "alt_km": 739.8601668421834,
        "timestamp": "2025-12-22T20:43:46.244837+00:00",
        "meta_object_name": "COSMOS 2251 DEB",
        "meta_object_id": "1993-036ATH",
        "meta_epoch": "2025-12-21T23:46:51.040128",
        "meta_mean_motion": 13.82917227,
        "meta_eccentricity": 0.0291156,
        "meta_inclination": 74.0637,
        "meta_ra_of_asc_node": 252.8841,
        "meta_arg_of_pericenter": 32.3711,
        "meta_mean_anomaly": 329.4908,
        "meta_ephemeris_type": 0,
        "meta_classification_type": "U",
        "meta_norad_cat_id": 35835,
        "meta_element_set_no": 999,
        "meta_rev_at_epoch": 61827,
        "meta_bstar": 0.0013812,
        "meta_mean_motion_dot": 2.065e-05,
        "meta_mean_motion_ddot": 0,
        "tle_line1": "1 35835U 93036ATH 25355.99086852  .00002065  00000+0  13812-2 0  9991",
        "tle_line2": "2 35835  74.0637 252.8841 0291156  32.3711 329.4908 13.82917227618275"
      },
      "geometry": {
        "type": "Point",
        "coordinates": [
          -101.16979988981863,
          24.302780278794415
        ]
      }
    },
    {
      "type": "Feature",
      "properties": {
        "norad_id": 35836,
        "name": "COSMOS 2251 DEB",
        "group": "cosmos-2251-debris",
        "lat": -33.20188034253329,
        "lon": -15.929709648046835,
        "alt_km": 646.5545579225854,
        "timestamp": "2025-12-22T20:43:46.244847+00:00",
        "meta_object_name": "COSMOS 2251 DEB",
        "meta_object_id": "1993-036ATJ",
        "meta_epoch": "2025-12-21T04:35:14.629056",
        "meta_mean_motion": 14.71143018,
        "meta_eccentricity": 0.0023624,
        "meta_inclination": 74.0314,
        "meta_ra_of_asc_node": 156.518,
        "meta_arg_of_pericenter": 214.2793,
        "meta_mean_anomaly": 145.6856,
        "meta_ephemeris_type": 0,
        "meta_classification_type": "U",
        "meta_norad_cat_id": 35836,
        "meta_element_set_no": 999,
        "meta_rev_at_epoch": 63644,
        "meta_bstar": 0.0015319,
        "meta_mean_motion_dot": 9.451e-05,
        "meta_mean_motion_ddot": 0,
        "tle_line1": "1 35836U 93036ATJ 25355.19114154  .00009451  00000+0  15319-2 0  9991",
        "tle_line2": "2 35836  74.0314 156.5180 0023624 214.2793 145.6856 14.71143018636445"
      },
      "geometry": {
        "type": "Point",
        "coordinates": [
          -15.929709648046835,
          -33.20188034253329
        ]
      }
    }
  ]
}